OBJECT_NAME,OBJECT_ID,EPOCH,MEAN_MOTION,ECCENTRICITY,INCLINATION,RA_OF_ASC_NODE,ARG_OF_PERICENTER,MEAN_ANOMALY,EPHEMERIS_TYPE,CLASSIFICATION_TYPE,NORAD_CAT_ID,ELEMENT_SET_NO,REV_AT_EPOCH,BSTAR,MEAN_MOTION_DOT,MEAN_MOTION_DDOT
AMOS-4,2013-045A,2026-06-14T04:19:38.753760,1.00272394,.0002517,0.0494,92.0593,329.5539,330.7904,0,U,39237,999,4692,0,.16E-6,0
AEHF-3 (USA 246),2013-050A,2026-06-13T17:41:51.523296,1.00271734,.00877544,5.2854,67.2159,188.0477,147.9574,0,U,39256,999,4561,0,.36E-6,0
ASTRA 2E,2013-056A,2026-06-14T02:58:36.751008,1.00270834,.0002746,0.0598,333.3772,112.2298,249.9673,0,U,39285,999,4638,0,.159E-5,0
FM-6,2013-058A,2026-06-13T16:01:19.780320,1.00266318,.00015567,0.0302,40.0804,125.3602,220.5258,0,U,39360,999,4603,0,0,0
RADUGA-1M 3,2013-062A,2026-06-13T22:06:34.741152,1.00270762,.0001851,5.9494,72.3931,262.8132,293.6524,0,U,39375,999,4607,0,.158E-5,0
SES-8,2013-071A,2026-06-14T02:37:38.601120,1.00270886,.000258,0.0185,295.9976,151.0762,309.7555,0,U,39460,999,4439,0,-.26E-5,0
INMARSAT 5-F1,2013-073A,2026-06-14T04:19:38.753760,1.00271848,.0000609,0.0175,8.1530,306.1721,75.6969,0,U,39476,999,4554,0,.36E-6,0
TKSAT-1 (TUPAC KATARI),2013-075A,2026-06-14T04:08:13.261344,1.00270400,.0002312,0.0495,146.4458,285.1295,165.7712,0,U,39481,999,4557,0,-.186E-5,0
EXPRESS-AM5,2013-077A,2026-06-14T05:12:59.337216,1.00272245,.0000406,0.0166,289.6950,41.5092,149.6048,0,U,39487,999,4633,0,-.271E-5,0
GSAT-14,2014-001A,2026-06-14T01:28:50.986272,1.00270759,.0001004,0.0302,91.3108,187.2030,80.0559,0,U,39498,999,4534,0,-.67E-6,0
THAICOM 6,2014-002A,2026-06-14T01:30:13.353984,1.00272283,.0004182,0.0604,118.9576,350.2137,254.2380,0,U,39500,999,4542,0,-.112E-5,0
TDRS 12,2014-004A,2026-06-14T00:56:03.337728,1.00267640,.0003107,3.9741,19.0396,199.1799,17.1899,0,U,39504,999,4424,0,-.264E-5,0
ABS-2,2014-006A,2026-06-14T04:42:21.648096,1.00270878,.0003783,0.0458,81.8368,345.4511,340.7272,0,U,39508,999,4524,0,-.77E-6,0
ATHENA-FIDUS,2014-006B,2026-06-14T03:01:13.999872,1.00270864,.0001195,0.0144,43.9822,42.8803,258.6683,0,U,39509,999,4505,0,.163E-5,0
TURKSAT 4A,2014-007A,2026-06-14T03:02:28.881024,1.00272347,.0001368,0.0409,305.6270,8.3116,36.1064,0,U,39522,999,4493,0,.155E-5,0
EXPRESS-AT1,2014-010A,2026-06-14T04:50:46.466880,1.00302516,.0003748,0.2486,85.8332,42.1895,269.1631,0,U,39612,999,4478,0,.36E-6,0
EXPRESS-AT2,2014-010B,2026-06-14T03:06:28.496736,1.00273345,.0000426,0.0178,329.6185,337.8316,57.6061,0,U,39613,999,4446,0,.87E-6,0
AMAZONAS 4A,2014-011A,2026-06-14T04:41:38.580288,1.00270797,.0003742,0.0596,181.7691,289.5484,147.6019,0,U,39616,999,4468,0,-.244E-5,0
ASTRA 5B,2014-011B,2026-06-14T02:57:06.895008,1.00272062,.0001767,0.0480,333.2238,98.8352,258.1390,0,U,39617,999,4463,0,.146E-5,0
IRNSS-1B,2014-017A,2026-06-13T18:33:03.376800,1.00275287,.00230477,28.9276,240.4620,189.4432,165.5473,0,U,39635,999,4475,0,.133E-5,0
LUCH-5V,2014-023A,2026-06-13T22:35:21.604992,1.00275707,.0001833,5.1230,69.7750,43.8123,222.1689,0,U,39727,999,4432,0,-.263E-5,0
KAZSAT-3,2014-023B,2026-06-14T04:19:38.753760,1.00271240,.0000201,0.0178,31.6655,54.4002,299.8285,0,U,39728,999,4242,0,.69E-6,0
EUTELSAT 3B,2014-030A,2026-06-14T04:33:55.580832,1.00269958,.0003896,0.0631,9.4484,74.5448,250.0737,0,U,39773,999,4403,0,.28E-6,0
ASIASAT 8 (AMOS-7),2014-046A,2026-06-14T02:37:38.601120,1.00267844,.0001229,0.0175,2.7088,92.0309,312.3764,0,U,40107,999,10211,0,-.323E-5,0
ASIASAT 6,2014-052A,2026-06-14T03:31:38.688384,1.00272380,.0000582,0.0172,57.2193,30.3796,347.6781,0,U,40141,999,4304,0,-.353E-5,0
OPTUS 10,2014-054A,2026-06-13T14:51:38.467872,1.00270267,.00018917,0.0481,285.1583,157.6248,198.0624,0,U,40146,999,4299,0,-.136E-5,0
MEASAT-3B,2014-054B,2026-06-14T01:33:50.508288,1.00270803,.0003144,0.0583,56.3367,17.8817,303.1115,0,U,40147,999,4287,0,-.232E-5,0
HIMAWARI-8,2014-060A,2026-06-13T22:22:38.122752,1.00272750,.0000979,0.0084,313.3740,133.4089,291.7739,0,U,40267,999,4272,0,-.266E-5,0
IRNSS-1C,2014-061A,2026-06-13T20:22:48.973152,1.00269861,.00227244,6.5097,88.9938,2.0384,199.8256,0,U,40269,999,4265,0,-.156E-5,0
INTELSAT 30 (IS-30),2014-062A,2026-06-13T22:57:59.628960,1.00271302,.0001295,0.0271,49.1684,328.5052,134.0377,0,U,40271,999,676,0,-.141E-5,0
ARSAT 1,2014-062B,2026-06-14T04:41:38.580288,1.00271205,.0001674,0.0254,39.9354,35.1741,185.9993,0,U,40272,999,4259,0,-.251E-5,0
EUTELSAT 53A,2014-064A,2026-06-13T23:40:14.618784,1.00269324,.0001001,0.0164,314.5447,247.0505,108.7541,0,U,40277,999,4153,0,.108E-5,0
