AMOS-4                  
1 39237U 13045A   26165.18030965  .00000016  00000+0  00000+0 0  9994
2 39237   0.0494  92.0593 0002517 329.5539 330.7904  1.00272394 46927
AEHF-3 (USA 246)        
1 39256U 13050A   26164.73740189  .00000036  00000+0  00000+0 0  9999
2 39256   5.2854  67.2159 0087754 188.0477 147.9574  1.00271734 45615
ASTRA 2E                
1 39285U 13056A   26165.12403647  .00000159  00000+0  00000+0 0  9992
2 39285   0.0598 333.3772 0002746 112.2298 249.9673  1.00270834 46389
FM-6                    
1 39360U 13058A   26164.66759005  .00000000  00000+0  00000+0 0  9993
2 39360   0.0302  40.0804 0001556 125.3602 220.5258  1.00266318 46034
RADUGA-1M 3             
1 39375U 13062A   26164.92123543  .00000158  00000+0  00000+0 0  9999
2 39375   5.9494  72.3931 0001851 262.8132 293.6524  1.00270762 46077
SES-8                   
1 39460U 13071A   26165.10947455 -.00000260  00000+0  00000+0 0  9996
2 39460   0.0185 295.9976 0002580 151.0762 309.7555  1.00270886 44398
INMARSAT 5-F1           
1 39476U 13073A   26165.18030965  .00000036  00000+0  00000+0 0  9992
2 39476   0.0175   8.1530 0000609 306.1721  75.6969  1.00271848 45547
TKSAT-1 (TUPAC KATARI)  
1 39481U 13075A   26165.17237571 -.00000186  00000+0  00000+0 0  9998
2 39481   0.0495 146.4458 0002312 285.1295 165.7712  1.00270400 45571
EXPRESS-AM5             
1 39487U 13077A   26165.21735344 -.00000271  00000+0  00000+0 0  9997
2 39487   0.0166 289.6950 0000406  41.5092 149.6048  1.00272245 46337
GSAT-14                 
1 39498U 14001A   26165.06170123 -.00000067  00000+0  00000+0 0  9991
2 39498   0.0302  91.3108 0001004 187.2030  80.0559  1.00270759 45342
THAICOM 6               
1 39500U 14002A   26165.06265456 -.00000112  00000+0  00000+0 0  9991
2 39500   0.0604 118.9576 0004182 350.2137 254.2380  1.00272283 45426
TDRS 12                 
1 39504U 14004A   26165.03892752 -.00000264  00000+0  00000+0 0  9997
2 39504   3.9741  19.0396 0003107 199.1799  17.1899  1.00267640 44246
ABS-2                   
1 39508U 14006A   26165.19608389 -.00000077  00000+0  00000+0 0  9993
2 39508   0.0458  81.8368 0003783 345.4511 340.7272  1.00270878 45245
ATHENA-FIDUS            
1 39509U 14006B   26165.12585648  .00000163  00000+0  00000+0 0  9994
2 39509   0.0144  43.9822 0001195  42.8803 258.6683  1.00270864 45056
TURKSAT 4A              
1 39522U 14007A   26165.12672316  .00000155  00000+0  00000+0 0  9990
2 39522   0.0409 305.6270 0001368   8.3116  36.1064  1.00272347 44932
EXPRESS-AT1             
1 39612U 14010A   26165.20192670  .00000036  00000+0  00000+0 0  9991
2 39612   0.2486  85.8332 0003748  42.1895 269.1631  1.00302516 44782
EXPRESS-AT2             
1 39613U 14010B   26165.12949649  .00000087  00000+0  00000+0 0  9995
2 39613   0.0178 329.6185 0000426 337.8316  57.6061  1.00273345 44465
AMAZONAS 4A             
1 39616U 14011A   26165.19558542 -.00000244  00000+0  00000+0 0  9990
2 39616   0.0596 181.7691 0003742 289.5484 147.6019  1.00270797 44689
ASTRA 5B                
1 39617U 14011B   26165.12299647  .00000146  00000+0  00000+0 0  9992
2 39617   0.0480 333.2238 0001767  98.8352 258.1390  1.00272062 44635
IRNSS-1B                
1 39635U 14017A   26164.77295575  .00000133  00000+0  00000+0 0  9990
2 39635  28.9276 240.4620 0023047 189.4432 165.5473  1.00275287 44750
LUCH-5V                 
1 39727U 14023A   26164.94122228 -.00000263  00000+0  00000+0 0  9997
2 39727   5.1230  69.7750 0001833  43.8123 222.1689  1.00275707 44323
KAZSAT-3                
1 39728U 14023B   26165.18030965  .00000069  00000+0  00000+0 0  9994
2 39728   0.0178  31.6655 0000201  54.4002 299.8285  1.00271240 42423
EUTELSAT 3B             
1 39773U 14030A   26165.19022663  .00000028  00000+0  00000+0 0  9994
2 39773   0.0631   9.4484 0003896  74.5448 250.0737  1.00269958 44033
ASIASAT 8 (AMOS-7)      
1 40107U 14046A   26165.10947455 -.00000323  00000+0  00000+0 0  9999
2 40107   0.0175   2.7088 0001229  92.0309 312.3764  1.00267844102112
ASIASAT 6               
1 40141U 14052A   26165.14697556 -.00000353  00000+0  00000+0 0  9995
2 40141   0.0172  57.2193 0000582  30.3796 347.6781  1.00272380 43042
OPTUS 10                
1 40146U 14054A   26164.61919523 -.00000136  00000+0  00000+0 0  9993
2 40146   0.0481 285.1583 0001891 157.6248 198.0624  1.00270267 42993
MEASAT-3B               
1 40147U 14054B   26165.06516792 -.00000232  00000+0  00000+0 0  9992
2 40147   0.0583  56.3367 0003144  17.8817 303.1115  1.00270803 42874
HIMAWARI-8              
1 40267U 14060A   26164.93238568 -.00000266  00000+0  00000+0 0  9996
2 40267   0.0084 313.3740 0000979 133.4089 291.7739  1.00272750 42724
IRNSS-1C                
1 40269U 14061A   26164.84917793 -.00000156  00000+0  00000+0 0  9991
2 40269   6.5097  88.9938 0022724   2.0384 199.8256  1.00269861 42659
INTELSAT 30 (IS-30)     
1 40271U 14062A   26164.95694015 -.00000141  00000+0  00000+0 0  9990
2 40271   0.0271  49.1684 0001295 328.5052 134.0377  1.00271302  6760
ARSAT 1                 
1 40272U 14062B   26165.19558542 -.00000251  00000+0  00000+0 0  9994
2 40272   0.0254  39.9354 0001674  35.1741 185.9993  1.00271205 42592
EUTELSAT 53A            
1 40277U 14064A   26164.98628031  .00000108  00000+0  00000+0 0  9998
2 40277   0.0164 314.5447 0001001 247.0505 108.7541  1.00269324 41532
